{
  "type": "FeatureCollection",
  "features": [
    {
      "type": "Feature",
      "properties": {
        "norad_id": 34924,
        "name": "COSMOS 2251 DEB",
        "group": "cosmos-2251-debris",
        "lat": 2.1705524009534134,
        "lon": 70.75393699362982,
        "alt_km": 727.8698951026772,
        "timestamp": "2025-12-22T20:43:46.243625+00:00",
        "meta_object_name": "COSMOS 2251 DEB",
        "meta_object_id": "1993-036ADV",
        "meta_epoch": "2025-12-22T09:46:44.969952",
        "meta_mean_motion": 14.60110049,
        "meta_eccentricity": 0.0053569,
        "meta_inclination": 74.0407,
        "meta_ra_of_asc_node": 71.0027,
        "meta_arg_of_pericenter": 153.2205,
        "meta_mean_anomaly": 332.1375,
        "meta_ephemeris_type": 0,
        "meta_classification_type": "U",
        "meta_norad_cat_id": 34924,
        "meta_element_set_no": 999,
        "meta_rev_at_epoch": 87864,
        "meta_bstar": 0.00085018675,
        "meta_mean_motion_dot": 4.145e-05,
        "meta_mean_motion_ddot": 0,
        "tle_line1": "1 34924U 93036ADV 25356.40746493  .00004145  00000+0  85019-3 0  9990",
        "tle_line2": "2 34924  74.0407  71.0027 0053569 153.2205 332.1375 14.60110049878642"
      },
      "geometry": {
        "type": "Point",
        "coordinates": [
          70.75393699362982,
          2.1705524009534134
        ]
      }
    },
    {
      "type": "Feature",
      "properties": {
        "norad_id": 34944,
        "name": "COSMOS 2251 DEB",
        "group": "cosmos-2251-debris",
        "lat": -54.53878326950904,
        "lon": 57.95094202723725,
        "alt_km": 1010.4383966336454,
        "timestamp": "2025-12-22T20:43:46.243634+00:00",
        "meta_object_name": "COSMOS 2251 DEB",
        "meta_object_id": "1993-036ADX",
        "meta_epoch": "2025-12-17T02:06:11.847168",
        "meta_mean_motion": 14.14195665,
        "meta_eccentricity": 0.02198727,
        "meta_inclination": 73.7495,
        "meta_ra_of_asc_node": 224.195,
        "meta_arg_of_pericenter": 70.8954,
        "meta_mean_anomaly": 291.5851,
        "meta_ephemeris_type": 0,
        "meta_classification_type": "U",
        "meta_norad_cat_id": 34944,
        "meta_element_set_no": 999,
        "meta_rev_at_epoch": 64144,
        "meta_bstar": 0.00030334686,
        "meta_mean_motion_dot": 7.03e-06,
        "meta_mean_motion_ddot": 0,
        "tle_line1": "1 34944U 93036ADX 25351.08763712  .00000703  00000+0  30335-3 0  9991",
        "tle_line2": "2 34944  73.7495 224.1950 0219872  70.8954 291.5851 14.14195665641448"
      },
      "geometry": {
        "type": "Point",
        "coordinates": [
          57.95094202723725,
          -54.53878326950904
        ]
      }
    },
    {
      "type": "Feature",
      "properties": {
        "norad_id": 34946,
        "name": "COSMOS 2251 DEB",
        "group": "cosmos-2251-debris",
        "lat": -72.1355955596546,
        "lon": -100.01351069169193,
        "alt_km": 727.7853652647182,
        "timestamp": "2025-12-22T20:43:46.243644+00:00",
        "meta_object_name": "COSMOS 2251 DEB",
        "meta_object_id": "1993-036ADZ",
        "meta_epoch": "2025-12-22T14:32:14.157024",
        "meta_mean_motion": 14.62044182,
        "meta_eccentricity": 0.00485038,
        "meta_inclination": 74.0239,
        "meta_ra_of_asc_node": 323.2107,
        "meta_arg_of_pericenter": 97.3579,
        "meta_mean_anomaly": 263.3103,
        "meta_ephemeris_type": 0,
        "meta_classification_type": "U",
        "meta_norad_cat_id": 34946,
        "meta_element_set_no": 999,
        "meta_rev_at_epoch": 88353,
        "meta_bstar": 0.00053383233,
        "meta_mean_motion_dot": 2.695e-05,
        "meta_mean_motion_ddot": 0,
        "tle_line1": "1 34946U 93036ADZ 25356.60571941  .00002695  00000+0  53383-3 0  9997",
        "tle_line2": "2 34946  74.0239 323.2107 0048503  97.3579 263.3103 14.62044182883538"
      },
      "geometry": {
        "type": "Point",
        "coordinates": [
          -100.01351069169193,
          -72.1355955596546
        ]
      }
    },
    {
      "type": "Feature",
      "properties": {
        "norad_id": 34949,
        "name": "COSMOS 2251 DEB",
        "group": "cosmos-2251-debris",
        "lat": -67.24874774775515,
        "lon": -47.01340494223066,
        "alt_km": 602.2191490710529,
        "timestamp": "2025-12-22T20:43:46.243654+00:00",
        "meta_object_name": "COSMOS 2251 DEB",
        "meta_object_id": "1993-036AEC",
        "meta_epoch": "2025-12-22T14:41:39.809184",
        "meta_mean_motion": 14.74062836,
        "meta_eccentricity": 0.00801208,
        "meta_inclination": 74.0192,
        "meta_ra_of_asc_node": 90.3708,
        "meta_arg_of_pericenter": 233.64,
        "meta_mean_anomaly": 125.7362,
        "meta_ephemeris_type": 0,
        "meta_classification_type": "U",
        "meta_norad_cat_id": 34949,
        "meta_element_set_no": 999,
        "meta_rev_at_epoch": 88507,
        "meta_bstar": 0.0005139703,
        "meta_mean_motion_dot": 3.528e-05,
        "meta_mean_motion_ddot": 0,
        "tle_line1": "1 34949U 93036AEC 25356.61226631  .00003528  00000+0  51397-3 0  9993",
        "tle_line2": "2 34949  74.0192  90.3708 0080120 233.6400 125.7362 14.74062836885075"
      },
      "geometry": {
        "type": "Point",
        "coordinates": [
          -47.01340494223066,
          -67.24874774775515
        ]
      }
    },
    {
      "type": "Feature",
      "properties": {
        "norad_id": 34953,
        "name": "COSMOS 2251 DEB",
        "group": "cosmos-2251-debris",
        "lat": 43.38528213093004,
        "lon": 23.595195833379197,
        "alt_km": 632.695817690571,
        "timestamp": "2025-12-22T20:43:46.243664+00:00",
        "meta_object_name": "COSMOS 2251 DEB",
        "meta_object_id": "1993-036AEG",
        "meta_epoch": "2025-12-22T11:23:59.510976",
        "meta_mean_motion": 14.69037291,
        "meta_eccentricity": 0.00586655,
        "meta_inclination": 74.0926,
        "meta_ra_of_asc_node": 8.7074,
        "meta_arg_of_pericenter": 357.9474,
        "meta_mean_anomaly": 152.224,
        "meta_ephemeris_type": 0,
        "meta_classification_type": "U",
        "meta_norad_cat_id": 34953,
        "meta_element_set_no": 999,
        "meta_rev_at_epoch": 88271,
        "meta_bstar": 0.0008576982,
        "meta_mean_motion_dot": 5.138e-05,
        "meta_mean_motion_ddot": 0,
        "tle_line1": "1 34953U 93036AEG 25356.47499434  .00005138  00000+0  85770-3 0  9996",
        "tle_line2": "2 34953  74.0926   8.7074 0058665 357.9474 152.2240 14.69037291882713"
      },
      "geometry": {
        "type": "Point",
        "coordinates": [
          23.595195833379197,
          43.38528213093004
        ]
      }
    },
    {
      "type": "Feature",
      "properties": {
        "norad_id": 34955,
        "name": "COSMOS 2251 DEB",
        "group": "cosmos-2251-debris",
        "lat": -64.31313065272111,
        "lon": 82.43228500076282,
        "alt_km": 532.1673563434024,
        "timestamp": "2025-12-22T20:43:46.243674+00:00",
        "meta_object_name": "COSMOS 2251 DEB",
        "meta_object_id": "1993-036AEJ",
        "meta_epoch": "2025-12-20T00:24:58.893120",
        "meta_mean_motion": 15.00658938,
        "meta_eccentricity": 0.00779123,
        "meta_inclination": 74.0366,
        "meta_ra_of_asc_node": 231.6989,
        "meta_arg_of_pericenter": 299.5962,
        "meta_mean_anomaly": 59.7477,
        "meta_ephemeris_type": 0,
        "meta_classification_type": "U",
        "meta_norad_cat_id": 34955,
        "meta_element_set_no": 999,
        "meta_rev_at_epoch": 90143,
        "meta_bstar": 0.00046776562,
        "meta_mean_motion_dot": 6.274e-05,
        "meta_mean_motion_ddot": 0,
        "tle_line1": "1 34955U 93036AEJ 25354.01734830  .00006274  00000+0  46777-3 0  9994",
        "tle_line2": "2 34955  74.0366 231.6989 0077912 299.5962  59.7477 15.00658938901431"
      },
      "geometry": {
        "type": "Point",
        "coordinates": [
          82.43228500076282,
          -64.31313065272111
        ]
      }
    },
    {
      "type": "Feature",
      "properties": {
        "norad_id": 34962,
        "name": "COSMOS 2251 DEB",
        "group": "cosmos-2251-debris",
        "lat": -47.91693824658986,
        "lon": 12.94328123656229,
        "alt_km": 735.9103246662971,
        "timestamp": "2025-12-22T20:43:46.243684+00:00",
        "meta_object_name": "COSMOS 2251 DEB",
        "meta_object_id": "1993-036AER",
        "meta_epoch": "2025-12-22T13:01:35.530176",
        "meta_mean_motion": 14.46544161,
        "meta_eccentricity": 0.00189039,
        "meta_inclination": 74.0281,
        "meta_ra_of_asc_node": 175.0517,
        "meta_arg_of_pericenter": 287.2321,
        "meta_mean_anomaly": 72.6768,
        "meta_ephemeris_type": 0,
        "meta_classification_type": "U",
        "meta_norad_cat_id": 34962,
        "meta_element_set_no": 999,
        "meta_rev_at_epoch": 87720,
        "meta_bstar": 0.00036229259,
        "meta_mean_motion_dot": 1.281e-05,
        "meta_mean_motion_ddot": 0,
        "tle_line1": "1 34962U 93036AER 25356.54277234  .00001281  00000+0  36229-3 0  9996",
        "tle_line2": "2 34962  74.0281 175.0517 0018903 287.2321  72.6768 14.46544161877206"
      },
      "geometry": {
        "type": "Point",
        "coordinates": [
          12.94328123656229,
          -47.91693824658986
        ]
      }
    }
  ]
}